[Satellite]
VERSION=1.1
NAME=MIDORI II (ADEOS-II)
NICKNAME=MIDORI II (ADEOS-II)
TLE1=1 27597U 02056A   22342.56627341  .00000243  00000+0  11649-3 0  9992
TLE2=2 27597  98.6274 283.9752 0000683 143.2549 216.8679 14.27695208 40815
STATUS=0
